{
    "links": {
        "self": "http://www.neowsapp.com/rest/v1/neo/3771626?api_key=iIulBulltgU6a56xZRHN4H3l9WmuAYTsLGpBGhQ2"
    },
    "id": "3771626",
    "neo_reference_id": "3771626",
    "name": "(2017 FU2)",
    "designation": "2017 FU2",
    "nasa_jpl_url": "http://ssd.jpl.nasa.gov/sbdb.cgi?sstr=3771626",
    "absolute_magnitude_h": 27.8,
    "estimated_diameter": {
        "kilometers": {
            "estimated_diameter_min": 0.0073207399,
            "estimated_diameter_max": 0.016369672
        },
        "meters": {
            "estimated_diameter_min": 7.3207398935,
            "estimated_diameter_max": 16.3696720474
        },
        "miles": {
            "estimated_diameter_min": 0.0045488955,
            "estimated_diameter_max": 0.0101716395
        },
        "feet": {
            "estimated_diameter_min": 24.0181762721,
            "estimated_diameter_max": 53.70627484
        }
    },
    "is_potentially_hazardous_asteroid": false,
    "close_approach_data": [
        {
            "close_approach_date": "2017-03-16",
            "close_approach_date_full": "2017-Mar-16 20:48",
            "epoch_date_close_approach": 1489697280000,
            "relative_velocity": {
                "kilometers_per_second": "8.0475195409",
                "kilometers_per_hour": "28971.0703472853",
                "miles_per_hour": "18001.4964610673"
            },
            "miss_distance": {
                "astronomical": "0.0186301532",
                "lunar": "7.2471295948",
                "kilometers": "2787031.236493684",
                "miles": "1731780.9066094792"
            },
            "orbiting_body": "Earth"
        }
    ],
    "orbital_data": {
        "orbit_id": "3",
        "orbit_determination_date": "2019-07-19 05:26:14",
        "first_observation_date": "2017-03-17",
        "last_observation_date": "2017-03-25",
        "data_arc_in_days": 8,
        "observations_used": 28,
        "orbit_uncertainty": "7",
        "minimum_orbit_intersection": ".00533796",
        "jupiter_tisserand_invariant": "3.710",
        "epoch_osculation": "2459000.5",
        "eccentricity": ".5035876608884742",
        "semi_major_axis": "1.963932850508009",
        "inclination": "2.517852737605482",
        "ascending_node_longitude": "356.0237004888376",
        "orbital_period": "1005.283093406232",
        "perihelion_distance": ".9749205001786475",
        "perihelion_argument": "153.3448443630167",
        "aphelion_distance": "2.952945200837371",
        "perihelion_time": "2458812.743789574436",
        "mean_anomaly": "67.237016315651",
        "mean_motion": ".3581080815556154",
        "equinox": "J2000",
        "orbit_class": {
            "orbit_class_type": "APO",
            "orbit_class_description": "Near-Earth asteroid orbits which cross the Earth’s orbit similar to that of 1862 Apollo",
            "orbit_class_range": "a (semi-major axis) > 1.0 AU; q (perihelion) < 1.017 AU"
        }
    },
    "is_sentry_object": false
}